start=new Date('2022-03-03T00:00:00.000Z').valueOf();
sats=[{"TLE_LINE1":"1 50194U 21125AQ  22061.91667824 -.00717776  00000-0 -59374-2 0  9991","ECCENTRICITY":"0.00035570","PERIAPSIS":"351.784","OBJECT_TYPE":"PAYLOAD","EPHEMERIS_TYPE":"0","FILE":"3341695","PERIOD":"91.623","NORAD_CAT_ID":"50194","MEAN_MOTION_DDOT":"0.0000000000000","ARG_OF_PERICENTER":"6.6622","TIME_SYSTEM":"UTC","SITE":"AFWTR","ELEMENT_SET_NO":"999","RA_OF_ASC_NODE":"357.3977","MEAN_ELEMENT_THEORY":"SGP4","GP_ID":"197661398","CLASSIFICATION_TYPE":"U","EPOCH":"2022-03-02T22:00:00.999936","INCLINATION":"53.2178","CENTER_NAME":"EARTH","COUNTRY_CODE":"US","DECAY_DATE":null,"MEAN_ANOMALY":"182.1592","RCS_SIZE":"LARGE","SEMIMAJOR_AXIS":"6732.313","MEAN_MOTION":"15.71651579","BSTAR":"-0.00593740000000","MEAN_MOTION_DOT":"-0.00717776","REV_AT_EPOCH":"369","OBJECT_ID":"2021-125AQ","APOAPSIS":"356.573","REF_FRAME":"TEME","LAUNCH_DATE":"2021-12-18","OBJECT_NAME":"STARLINK-3269","TLE_LINE2":"2 50194  53.2178 357.3977 0003557   6.6622 182.1592 15.71651579  3693"},{"OBJECT_TYPE":"PAYLOAD","TLE_LINE1":"1 50195U 21125AR  22061.91667824 -.00718189  00000-0 -60368-2 0  9996","ECCENTRICITY":"0.00036930","PERIAPSIS":"352.771","MEAN_MOTION_DDOT":"0.0000000000000","PERIOD":"91.645","NORAD_CAT_ID":"50195","EPHEMERIS_TYPE":"0","FILE":"3341695","SITE":"AFWTR","ARG_OF_PERICENTER":"345.8702","TIME_SYSTEM":"UTC","GP_ID":"197661649","CLASSIFICATION_TYPE":"U","ELEMENT_SET_NO":"999","RA_OF_ASC_NODE":"357.4019","MEAN_ELEMENT_THEORY":"SGP4","COUNTRY_CODE":"US","DECAY_DATE":null,"INCLINATION":"53.2177","EPOCH":"2022-03-02T22:00:00.999936","CENTER_NAME":"EARTH","REV_AT_EPOCH":"369","MEAN_MOTION_DOT":"-0.00718189","RCS_SIZE":"LARGE","MEAN_ANOMALY":"198.5906","BSTAR":"-0.00603680000000","SEMIMAJOR_AXIS":"6733.392","MEAN_MOTION":"15.71273904","OBJECT_ID":"2021-125AR","TLE_LINE2":"2 50195  53.2177 357.4019 0003693 345.8702 198.5906 15.71273904  3691","APOAPSIS":"357.744","OBJECT_NAME":"STARLINK-3266","LAUNCH_DATE":"2021-12-18","REF_FRAME":"TEME"},{"OBJECT_ID":"2021-125AS","TLE_LINE2":"2 50196  53.2178 357.3945 0003196  10.3001 181.2424 15.71903272  3696","APOAPSIS":"355.611","OBJECT_NAME":"STARLINK-3263","REF_FRAME":"TEME","LAUNCH_DATE":"2021-12-18","DECAY_DATE":null,"COUNTRY_CODE":"US","INCLINATION":"53.2178","EPOCH":"2022-03-02T22:00:00.999936","CENTER_NAME":"EARTH","REV_AT_EPOCH":"369","MEAN_MOTION_DOT":"-0.00717748","RCS_SIZE":"LARGE","MEAN_ANOMALY":"181.2424","BSTAR":"-0.00587480000000","SEMIMAJOR_AXIS":"6731.595","MEAN_MOTION":"15.71903272","SITE":"AFWTR","ARG_OF_PERICENTER":"10.3001","TIME_SYSTEM":"UTC","GP_ID":"197660396","CLASSIFICATION_TYPE":"U","ELEMENT_SET_NO":"999","RA_OF_ASC_NODE":"357.3945","MEAN_ELEMENT_THEORY":"SGP4","OBJECT_TYPE":"PAYLOAD","PERIAPSIS":"351.308","TLE_LINE1":"1 50196U 21125AS  22061.91667824 -.00717748  00000-0 -58748-2 0  9996","ECCENTRICITY":"0.00031960","MEAN_MOTION_DDOT":"0.0000000000000","PERIOD":"91.609","NORAD_CAT_ID":"50196","EPHEMERIS_TYPE":"0","FILE":"3341695"},{"SITE":"AFWTR","TIME_SYSTEM":"UTC","ARG_OF_PERICENTER":"9.7333","CLASSIFICATION_TYPE":"U","GP_ID":"197661146","MEAN_ELEMENT_THEORY":"SGP4","ELEMENT_SET_NO":"999","RA_OF_ASC_NODE":"357.3962","OBJECT_TYPE":"PAYLOAD","TLE_LINE1":"1 50197U 21125AT  22061.91667824 -.00717694  00000-0 -59060-2 0  9995","PERIAPSIS":"351.689","ECCENTRICITY":"0.00031650","MEAN_MOTION_DDOT":"0.0000000000000","NORAD_CAT_ID":"50197","PERIOD":"91.616","FILE":"3341695","EPHEMERIS_TYPE":"0","OBJECT_ID":"2021-125AT","TLE_LINE2":"2 50197  53.2178 357.3962 0003165   9.7333 180.4673 15.71777383  3691","OBJECT_NAME":"STARLINK-3267","REF_FRAME":"TEME","LAUNCH_DATE":"2021-12-18","APOAPSIS":"355.950","COUNTRY_CODE":"US","DECAY_DATE":null,"CENTER_NAME":"EARTH","INCLINATION":"53.2178","EPOCH":"2022-03-02T22:00:00.999936","REV_AT_EPOCH":"369","MEAN_MOTION_DOT":"-0.00717694","BSTAR":"-0.00590600000000","MEAN_MOTION":"15.71777383","SEMIMAJOR_AXIS":"6731.954","RCS_SIZE":"MEDIUM","MEAN_ANOMALY":"180.4673"},{"OBJECT_ID":"2021-125AU","OBJECT_NAME":"STARLINK-3264","LAUNCH_DATE":"2021-12-18","REF_FRAME":"TEME","APOAPSIS":"354.417","TLE_LINE2":"2 50198  53.2178 357.3891 0003023  12.2141 183.1308 15.72280840  3695","CENTER_NAME":"EARTH","INCLINATION":"53.2178","EPOCH":"2022-03-02T22:00:00.999936","DECAY_DATE":null,"COUNTRY_CODE":"US","BSTAR":"-0.00578200000000","SEMIMAJOR_AXIS":"6730.517","MEAN_MOTION":"15.72280840","RCS_SIZE":"LARGE","MEAN_ANOMALY":"183.1308","REV_AT_EPOCH":"369","MEAN_MOTION_DOT":"-0.00717834","TIME_SYSTEM":"UTC","ARG_OF_PERICENTER":"12.2141","SITE":"AFWTR","MEAN_ELEMENT_THEORY":"SGP4","RA_OF_ASC_NODE":"357.3891","ELEMENT_SET_NO":"999","CLASSIFICATION_TYPE":"U","GP_ID":"197661898","ECCENTRICITY":"0.00030230","TLE_LINE1":"1 50198U 21125AU  22061.91667824 -.00717834  00000-0 -57820-2 0  9994","PERIAPSIS":"350.347","OBJECT_TYPE":"PAYLOAD","FILE":"3341695","EPHEMERIS_TYPE":"0","MEAN_MOTION_DDOT":"0.0000000000000","PERIOD":"91.587","NORAD_CAT_ID":"50198"},{"EPHEMERIS_TYPE":"0","FILE":"3341695","MEAN_MOTION_DDOT":"0.0000000000000","NORAD_CAT_ID":"50199","PERIOD":"91.691","TLE_LINE1":"1 50199U 21125AV  22061.91667824 -.00713418  00000-0 -61904-2 0  9997","ECCENTRICITY":"0.00043990","PERIAPSIS":"354.507","OBJECT_TYPE":"PAYLOAD","ELEMENT_SET_NO":"999","RA_OF_ASC_NODE":"357.3639","MEAN_ELEMENT_THEORY":"SGP4","GP_ID":"197662149","CLASSIFICATION_TYPE":"U","ARG_OF_PERICENTER":"318.5929","TIME_SYSTEM":"UTC","SITE":"AFWTR","RCS_SIZE":"LARGE","MEAN_ANOMALY":"238.5197","BSTAR":"-0.00619040000000","SEMIMAJOR_AXIS":"6735.605","MEAN_MOTION":"15.70499814","REV_AT_EPOCH":"369","MEAN_MOTION_DOT":"-0.00713418","INCLINATION":"53.2177","EPOCH":"2022-03-02T22:00:00.999936","CENTER_NAME":"EARTH","COUNTRY_CODE":"US","DECAY_DATE":null,"APOAPSIS":"360.433","OBJECT_NAME":"STARLINK-3270","LAUNCH_DATE":"2021-12-18","REF_FRAME":"TEME","TLE_LINE2":"2 50199  53.2177 357.3639 0004399 318.5929 238.5197 15.70499814  3690","OBJECT_ID":"2021-125AV"},{"OBJECT_TYPE":"PAYLOAD","ECCENTRICITY":"0.00029970","TLE_LINE1":"1 50200U 21125AW  22061.91667824 -.00717640  00000-0 -58429-2 0  9999","PERIAPSIS":"351.083","NORAD_CAT_ID":"50200","PERIOD":"91.601","MEAN_MOTION_DDOT":"0.0000000000000","EPHEMERIS_TYPE":"0","FILE":"3341695","SITE":"AFWTR","ARG_OF_PERICENTER":"12.8523","TIME_SYSTEM":"UTC","GP_ID":"197660896","CLASSIFICATION_TYPE":"U","ELEMENT_SET_NO":"999","RA_OF_ASC_NODE":"357.3928","MEAN_ELEMENT_THEORY":"SGP4","COUNTRY_CODE":"US","DECAY_DATE":null,"EPOCH":"2022-03-02T22:00:00.999936","INCLINATION":"53.2178","CENTER_NAME":"EARTH","MEAN_MOTION_DOT":"-0.00717640","REV_AT_EPOCH":"369","MEAN_ANOMALY":"179.9949","RCS_SIZE":"LARGE","MEAN_MOTION":"15.72029081","SEMIMAJOR_AXIS":"6731.236","BSTAR":"-0.00584290000000","OBJECT_ID":"2021-125AW","TLE_LINE2":"2 50200  53.2178 357.3928 0002997  12.8523 179.9949 15.72029081  3691","APOAPSIS":"355.118","LAUNCH_DATE":"2021-12-18","REF_FRAME":"TEME","OBJECT_NAME":"STARLINK-3235"},{"APOAPSIS":"354.526","LAUNCH_DATE":"2021-12-18","REF_FRAME":"TEME","OBJECT_NAME":"STARLINK-3255","TLE_LINE2":"2 50201  53.2178 357.3854 0003694   5.9233 191.5396 15.72400682  3692","OBJECT_ID":"2021-125AX","MEAN_ANOMALY":"191.5396","RCS_SIZE":"LARGE","MEAN_MOTION":"15.72400682","SEMIMAJOR_AXIS":"6730.175","BSTAR":"-0.00575400000000","MEAN_MOTION_DOT":"-0.00718219","REV_AT_EPOCH":"369","EPOCH":"2022-03-02T22:00:00.999936","INCLINATION":"53.2178","CENTER_NAME":"EARTH","DECAY_DATE":null,"COUNTRY_CODE":"US","RA_OF_ASC_NODE":"357.3854","ELEMENT_SET_NO":"999","MEAN_ELEMENT_THEORY":"SGP4","GP_ID":"197660647","CLASSIFICATION_TYPE":"U","ARG_OF_PERICENTER":"5.9233","TIME_SYSTEM":"UTC","SITE":"AFWTR","EPHEMERIS_TYPE":"0","FILE":"3341695","NORAD_CAT_ID":"50201","PERIOD":"91.580","MEAN_MOTION_DDOT":"0.0000000000000","TLE_LINE1":"1 50201U 21125AX  22061.91667824 -.00718219  00000-0 -57540-2 0  9996","PERIAPSIS":"349.554","ECCENTRICITY":"0.00036940","OBJECT_TYPE":"PAYLOAD"},{"CENTER_NAME":"EARTH","EPOCH":"2022-03-02T22:00:00.999936","INCLINATION":"53.2174","DECAY_DATE":null,"COUNTRY_CODE":"US","SEMIMAJOR_AXIS":"6747.899","MEAN_MOTION":"15.66209621","BSTAR":"-0.00744290000000","MEAN_ANOMALY":"51.0999","RCS_SIZE":"LARGE","MEAN_MOTION_DOT":"-0.00717228","REV_AT_EPOCH":"1455","OBJECT_ID":"2021-125AY","LAUNCH_DATE":"2021-12-18","REF_FRAME":"TEME","OBJECT_NAME":"STARLINK-3256","APOAPSIS":"370.679","TLE_LINE2":"2 50202  53.2174 356.0725 0001356  48.1458  51.0999 15.66209621 14552","TLE_LINE1":"1 50202U 21125AY  22061.91667824 -.00717228  00000-0 -74429-2 0  9991","ECCENTRICITY":"0.00013560","PERIAPSIS":"368.849","OBJECT_TYPE":"PAYLOAD","FILE":"3341640","EPHEMERIS_TYPE":"0","NORAD_CAT_ID":"50202","PERIOD":"91.942","MEAN_MOTION_DDOT":"0.0000000000000","TIME_SYSTEM":"UTC","ARG_OF_PERICENTER":"48.1458","SITE":"AFWTR","MEAN_ELEMENT_THEORY":"SGP4","ELEMENT_SET_NO":"999","RA_OF_ASC_NODE":"356.0725","CLASSIFICATION_TYPE":"U","GP_ID":"197636855"},{"COUNTRY_CODE":"US","DECAY_DATE":null,"INCLINATION":"53.2178","EPOCH":"2022-03-02T22:00:00.999936","CENTER_NAME":"EARTH","REV_AT_EPOCH":"369","MEAN_MOTION_DOT":"-0.00717855","RCS_SIZE":"LARGE","MEAN_ANOMALY":"184.3282","BSTAR":"-0.00581280000000","SEMIMAJOR_AXIS":"6730.876","MEAN_MOTION":"15.72155000","OBJECT_ID":"2021-125AZ","TLE_LINE2":"2 50203  53.2178 357.3911 0003252   9.7865 184.3282 15.72155000  3696","APOAPSIS":"354.930","OBJECT_NAME":"STARLINK-3257","LAUNCH_DATE":"2021-12-18","REF_FRAME":"TEME","OBJECT_TYPE":"PAYLOAD","TLE_LINE1":"1 50203U 21125AZ  22061.91667824 -.00717855  00000-0 -58128-2 0  9996","PERIAPSIS":"350.552","ECCENTRICITY":"0.00032520","MEAN_MOTION_DDOT":"0.0000000000000","PERIOD":"91.594","NORAD_CAT_ID":"50203","EPHEMERIS_TYPE":"0","FILE":"3341695","SITE":"AFWTR","ARG_OF_PERICENTER":"9.7865","TIME_SYSTEM":"UTC","GP_ID":"197661650","CLASSIFICATION_TYPE":"U","ELEMENT_SET_NO":"999","RA_OF_ASC_NODE":"357.3911","MEAN_ELEMENT_THEORY":"SGP4"}];
